H1 CPF 01  gfz 2022 03 27 12  5862 terrasarx 
H2 0702601  6201 31698    2022 03 27 12 59 42 2022 04 01 00 00 42   120 1 1  0 0 0
H9
10 0 59666  76302.000000  0    2525043.776  -3766058.605   5176162.686
10 0 59666  76422.000000  0    1950907.460  -3291482.313   5718084.485
10 0 59666  76542.000000  0    1351604.641  -2749157.587   6159443.030
10 0 59666  76662.000000  0     738714.910  -2148232.659   6492514.763
10 0 59666  76782.000000  0     123875.367  -1499072.736   6711477.669
10 0 59666  76902.000000  0    -481440.228   -813078.816   6812507.170
10 0 59666  77022.000000  0   -1066134.450   -102485.744   6793838.908
10 0 59666  77142.000000  0   -1619688.825    619855.874   6655797.432
10 0 59666  77262.000000  0   -2132352.452   1340711.459   6400790.815
10 0 59666  77382.000000  0   -2595314.031   2046703.934   6033271.322
10 0 59666  77502.000000  0   -3000854.406   2724561.636   5559662.760
10 0 59666  77622.000000  0   -3342477.965   3361369.332   4988254.807
10 0 59666  77742.000000  0   -3615020.714   3944817.150   4329063.977
10 0 59666  77862.000000  0   -3814731.937   4463443.543   3593663.052
10 0 59666  77982.000000  0   -3939327.615   4906866.723   2794980.425
10 0 59666  78102.000000  0   -3988014.233   5265998.789   1947071.746
10 0 59666  78222.000000  0   -3961481.259   5533236.357   1064869.050
10 0 59666  78342.000000  0   -3861864.166   5702624.284    163912.918
10 0 59666  78462.000000  0   -3692678.501   5769989.006   -739929.419
10 0 59666  78582.000000  0   -3458724.062   5733035.036  -1630754.236
10 0 59666  78702.000000  0   -3165962.889   5591402.127  -2492911.126
10 0 59666  78822.000000  0   -2821373.221   5346683.105  -3311284.096
10 0 59666  78942.000000  0   -2432787.217   5002402.613  -4071559.754
10 0 59666  79062.000000  0   -2008714.667   4563957.378  -4760477.236
10 0 59666  79182.000000  0   -1558157.529   4038521.306  -5366053.615
10 0 59666  79302.000000  0   -1090420.830   3434919.875  -5877784.506
10 0 59666  79422.000000  0    -614922.257   2763474.022  -6286817.680
10 0 59666  79542.000000  0    -141004.706   2035817.310  -6586094.787
10 0 59666  79662.000000  0     322243.186   1264692.565  -6770461.428
10 0 59666  79782.000000  0     766156.519    463730.110  -6836747.367
10 0 59666  79902.000000  0    1182652.604   -352789.168  -6783815.318
10 0 59666  80022.000000  0    1564374.232  -1170183.578  -6612577.117
10 0 59666  80142.000000  0    1904816.070  -1973627.411  -6325978.839
10 0 59666  80262.000000  0    2198434.133  -2748412.829  -5928956.163
10 0 59666  80382.000000  0    2440735.998  -3480214.735  -5428359.893
10 0 59666  80502.000000  0    2628351.266  -4155356.552  -4832848.789
10 0 59666  80622.000000  0    2759079.039  -4761067.160  -4152748.793
10 0 59666  80742.000000  0    2831912.270  -5285725.852  -3399884.955
10 0 59666  80862.000000  0    2847038.560  -5719093.869  -2587385.103
10 0 59666  80982.000000  0    2805816.847  -6052523.759  -1729455.530
10 0 59666  81102.000000  0    2710730.619  -6279142.193   -841133.822
10 0 59666  81222.000000  0    2565316.210  -6394000.531     61978.800
10 0 59666  81342.000000  0    2374068.431  -6394186.997    963997.858
10 0 59666  81462.000000  0    2142326.988  -6278900.006   1849042.631
10 0 59666  81582.000000  0    1876144.888  -6049478.294   2701526.241
10 0 59666  81702.000000  0    1582142.794  -5709386.334   3506438.238
10 0 59666  81822.000000  0    1267353.502  -5264157.708   4249614.619
10 0 59666  81942.000000  0     939060.501  -4721298.201   4917989.975
10 0 59666  82062.000000  0     604634.627  -4090151.749   5499828.827
10 0 59666  82182.000000  0     271371.852  -3381729.341   5984930.571
10 0 59666  82302.000000  0     -53662.314  -2608507.022   6364802.818
10 0 59666  82422.000000  0    -363779.638  -1784200.175   6632802.807
10 0 59666  82542.000000  0    -652803.978   -923517.549   6784247.582
10 0 59666  82662.000000  0    -915192.456    -41897.218   6816492.030
10 0 59666  82782.000000  0   -1146140.808    844771.109   6728972.460
10 0 59666  82902.000000  0   -1341670.901   1720432.090   6523215.470
10 0 59666  83022.000000  0   -1498699.148   2569154.666   6202813.049
10 0 59666  83142.000000  0   -1615085.460   3375422.113   5773363.810
10 0 59666  83262.000000  0   -1689661.403   4124417.418   5242380.352
10 0 59666  83382.000000  0   -1722237.060   4802299.863   4619164.882
10 0 59666  83502.000000  0   -1713587.180   5396468.140   3914651.519
10 0 59666  83622.000000  0   -1665415.475   5895803.134   3141217.857
10 0 59666  83742.000000  0   -1580299.741   6290885.113   2312468.528
10 0 59666  83862.000000  0   -1461617.149   6574181.101   1442993.759
10 0 59666  83982.000000  0   -1313450.452   6740196.379    548107.234
10 0 59666  84102.000000  0   -1140478.939   6785585.914   -356430.209
10 0 59666  84222.000000  0    -947856.788   6709224.937  -1254697.023
10 0 59666  84342.000000  0    -741080.631   6512232.133  -2130902.760
10 0 59666  84462.000000  0    -525851.863   6197944.890  -2969673.306
10 0 59666  84582.000000  0    -307937.122   5771852.081  -3756323.774
10 0 59666  84702.000000  0     -93029.480   5241487.039  -4477116.187
10 0 59666  84822.000000  0     113386.039   4616282.082  -5119497.040
10 0 59666  84942.000000  0     306159.742   3907389.376  -5672309.987
10 0 59666  85062.000000  0     480594.332   3127471.950  -6125981.232
10 0 59666  85182.000000  0     632548.775   2290469.942  -6472674.306
10 0 59666  85302.000000  0     758527.744   1411348.652  -6706413.571
10 0 59666  85422.000000  0     855755.289    505832.230  -6823177.193
10 0 59666  85542.000000  0     922231.266   -409873.602  -6820959.025
10 0 59666  85662.000000  0     956770.002  -1319366.086  -6699798.605
10 0 59666  85782.000000  0     959020.620  -2206331.227  -6461778.792
10 0 59666  85902.000000  0     929469.591  -3054827.996  -6110994.905
10 0 59666  86022.000000  0     869424.658  -3849571.389  -5653493.997
10 0 59666  86142.000000  0     780979.779  -4576207.310  -5097179.634
10 0 59666  86262.000000  0     666963.264  -5221573.417  -4451686.533
10 0 59666  86382.000000  0     530868.230  -5773944.141  -3728225.214
10 0 59667    102.000000  0     376766.908  -6223253.472  -2939396.004
10 0 59667    222.000000  0     209210.645  -6561289.912  -2098976.094
10 0 59667    342.000000  0      33117.650  -6781860.159  -1221681.590
10 0 59667    462.000000  0    -146349.424  -6880914.748   -322907.656
10 0 59667    582.000000  0    -323912.888  -6856631.728    581546.574
10 0 59667    702.000000  0    -494313.209  -6709456.974   1475762.420
10 0 59667    822.000000  0    -652442.671  -6442099.677   2343990.820
10 0 59667    942.000000  0    -793475.918  -6059481.292   3170939.512
10 0 59667   1062.000000  0    -912992.748  -5568638.284   3942050.883
10 0 59667   1182.000000  0   -1007091.895  -4978583.631   4643762.027
10 0 59667   1302.000000  0   -1072492.614  -4300132.020   5263744.730
10 0 59667   1422.000000  0   -1106620.742  -3545692.561   5791121.823
10 0 59667   1542.000000  0   -1107678.603  -2729031.391   6216655.521
10 0 59667   1662.000000  0   -1074695.808  -1865012.243   6532901.947
10 0 59667   1782.000000  0   -1007561.215   -969322.839   6734334.553
10 0 59667   1902.000000  0    -907036.527    -58187.967   6817436.046
10 0 59667   2022.000000  0    -774750.437    851924.893   6780755.829
10 0 59667   2142.000000  0    -613172.056   1744602.745   6624934.130
10 0 59667   2262.000000  0    -425564.737   2603782.648   6352691.421
10 0 59667   2382.000000  0    -215921.407   3414040.646   5968783.834
10 0 59667   2502.000000  0      11117.149   4160870.547   5479925.101
10 0 59667   2622.000000  0     250360.298   4830947.350   4894674.830
10 0 59667   2742.000000  0     496180.758   5412372.242   4223295.202
10 0 59667   2862.000000  0     742639.482   5894891.380   3477573.378
10 0 59667   2982.000000  0     983620.122   6270085.579   2670621.310
10 0 59667   3102.000000  0    1212973.091   6531532.646   1816642.549
10 0 59667   3222.000000  0    1424660.788   6674922.888    930676.228
10 0 59667   3342.000000  0    1612903.159   6698135.455     28325.302
10 0 59667   3462.000000  0    1772319.350   6601269.615   -874526.319
10 0 59667   3582.000000  0    1898061.197   6386631.882  -1762001.385
10 0 59667   3702.000000  0    1985936.002   6058679.879  -2618515.773
10 0 59667   3822.000000  0    2032515.397   5623923.839  -3429058.291
10 0 59667   3942.000000  0    2035227.570   5090787.949  -4179457.649
10 0 59667   4062.000000  0    1992430.507   4469435.116  -4856629.856
10 0 59667   4182.000000  0    1903464.622   3771561.901  -5448801.212
10 0 59667   4302.000000  0    1768684.936   3010169.590  -5945704.826
10 0 59667   4422.000000  0    1589471.383   2199315.237  -6338748.762
10 0 59667   4542.000000  0    1368217.931   1353849.133  -6621152.413
10 0 59667   4662.000000  0    1108301.976    489144.330  -6788052.954
10 0 59667   4782.000000  0     814032.764   -379179.395  -6836580.750
10 0 59667   4902.000000  0     490580.282  -1235532.421  -6765902.395
10 0 59667   5022.000000  0     143886.357  -2064627.611  -6577231.887
10 0 59667   5142.000000  0    -219440.814  -2851745.239  -6273813.103
10 0 59667   5262.000000  0    -592249.135  -3582990.875  -5860871.419
10 0 59667   5382.000000  0    -966978.610  -4245538.781  -5345532.055
10 0 59667   5502.000000  0   -1335809.431  -4827858.604  -4736708.994
10 0 59667   5622.000000  0   -1690820.705  -5319922.201  -4044962.322
10 0 59667   5742.000000  0   -2024156.496  -5713385.127  -3282324.818
10 0 59667   5862.000000  0   -2328195.426  -6001738.579  -2462100.211
10 0 59667   5982.000000  0   -2595720.355  -6180428.687  -1598635.774
10 0 59667   6102.000000  0   -2820084.195  -6246939.857   -707071.756
10 0 59667   6222.000000  0   -2995367.524  -6200838.044    196928.323
10 0 59667   6342.000000  0   -3116523.190  -6043771.546   1097459.875
99
